              M50 Cartesian                         J2K Cartesian  
    -----------------------------------       --------------------------------
     X    =      -13082555.06                 X    =        -4039827.11
     Y    =        8555753.04  feet           Y    =         2562910.18  meter
     Z    =       15804228.70                 Z    =         4797631.01
     XDOT =      -4822.933447                 XDOT =       -1403.559534
     YDOT =     -23181.103016  feet/sec       YDOT =       -7081.667147  meter/sec
     ZDOT =       8542.482785                 ZDOT =        2596.769788
 
              TDR Cartesian                         TDR Cartesian  
    -----------------------------------       --------------------------------
     X    =      -12135321.70                 X    =        -3698846.05
     Y    =        9988687.44  feet           Y    =         3044551.93  meter
     Z    =       15719029.62                 Z    =         4791160.23
     XDOT =      -6731.114519                 XDOT =       -2051.643705
     YDOT =     -21597.881049  feet/sec       YDOT =       -6583.034144  meter/sec
     ZDOT =       8513.381410                 ZDOT =        2594.878654
  
  
    The mean element set is posted at the UTC for which position is
    just north of the next ascending node relative to the above
    vector time
 
 
    TWO LINE MEAN ELEMENT SET
  
    ISS
    1 25544U 98067A   16089.55280654  .00016717  00000-0  10270-3 0  9040
    2 25544  51.6395  95.2157 0002303   7.1164 353.0021 15.54275217 32599
  
  
    Satellite: ISS
    Catalog Number: 25544
    Epoch time:      16089.55280654   =   yrday.fracday
    Element set:     904
    Inclination:       51.6395  deg
    RA of node:        95.2157  deg
    Eccentricity:     .0002303     
    Arg of perigee:     7.1164  deg
    Mean anomaly:     353.0021  deg
    Mean motion:   15.54275217  rev/day
    Decay rate:    1.67170E-04  rev/day^2
    Epoch rev:            3259
    Checksum:              293
 
 
    Coasting Arc #6 (Orbit 3273)
    ---------------------------------------
 
    Vector Time (GMT): 2016/090/12:00:00.000
    Vector Time (MET): N/A
    Weight (LBS)     : 917037.0
 
              M50 Cartesian                         M50 Keplerian  
    -----------------------------------       --------------------------------
     X    =        4149108.68                 A    =         6777057.50  meter
     Y    =        -781091.68  meter          E    =           .0015481
     Z    =       -5314558.12                 I    =           51.98905
     XDOT =        570.749953                 Wp   =           76.52893
     YDOT =       7606.603298  meter/sec      RA   =           89.64839  deg
     ZDOT =       -670.501494                 TA   =          187.07937
                                              MA   =          187.10126
                                              Ha   =            221.095  n.mi
                                              Hp   =            214.348
 
              M50 Cartesian                         J2K Cartesian  
    -----------------------------------       --------------------------------
     X    =       13612561.30                 X    =         4183350.62
     Y    =       -2562636.75  feet           Y    =         -734502.59  meter
     Z    =      -17436214.31                 Z    =        -5294319.47
     XDOT =       1872.539215                 XDOT =         488.905625
     YDOT =      24956.047567  feet/sec       YDOT =        7612.528127  meter/sec
     ZDOT =      -2199.808051                 ZDOT =        -667.928375
 
              TDR Cartesian                         TDR Cartesian  
    -----------------------------------       --------------------------------
     X    =       13275471.07                 X    =         4046363.58
     Y    =       -4323830.10  feet           Y    =        -1317903.41  meter
     Z    =      -17348108.34                 Z    =        -5287703.42
     XDOT =       4794.474724                 XDOT =        1461.355896
     YDOT =      23531.817648  feet/sec       YDOT =        7172.498019  meter/sec
     ZDOT =      -2189.965902                 ZDOT =        -667.501607
  
  
    The mean element set is posted at the UTC for which position is
    just north of the next ascending node relative to the above
    vector time
 
 
    TWO LINE MEAN ELEMENT SET
  
    ISS
    1 25544U 98067A   16090.51723465  .00016717  00000-0  10270-3 0  9051
    2 25544  51.6401  90.4076 0002334  11.6898 348.4309 15.54282699 32748
  
  
    Satellite: ISS
    Catalog Number: 25544
    Epoch time:      16090.51723465   =   yrday.fracday
    Element set:     905
    Inclination:       51.6401  deg
    RA of node:        90.4076  deg
    Eccentricity:     .0002334     
    Arg of perigee:    11.6898  deg
    Mean anomaly:     348.4309  deg
    Mean motion:   15.54282699  rev/day
    Decay rate:    1.67170E-04  rev/day^2
    Epoch rev:            3274
    Checksum:              313
 
 
    Coasting Arc #7 (Orbit 3275)
    ---------------------------------------
 
    Vector Time (GMT): 2016/090/14:15:30.000
    Vector Time (MET): N/A
    Weight (LBS)     : 901911.1
 
              M50 Cartesian                         M50 Keplerian  
    -----------------------------------       --------------------------------
     X    =       -3899386.99                 A    =         6778116.22  meter
     Y    =        2320289.56  meter          E    =           .0005230
     Z    =        5031092.34                 I    =           51.99294
     XDOT =      -1680.095062                 Wp   =           99.52313
     YDOT =      -7208.281447  meter/sec      RA   =           89.19202  deg
     ZDOT =       2019.593759                 TA   =          330.94525
                                              MA   =          330.97434
                                              Ha   =            221.111  n.mi
                                              Hp   =            214.235
 
              M50 Cartesian                         J2K Cartesian  
    -----------------------------------       --------------------------------
     X    =      -12793264.39                 X    =        -3949482.21
     Y    =        7612498.57  feet           Y    =         2276404.36  meter
     Z    =       16506208.47                 Z    =         5012028.14
     XDOT =      -5512.122906                 XDOT =       -1609.175754
     YDOT =     -23649.217346  feet/sec       YDOT =       -7226.672679  meter/sec
     ZDOT =       6625.963775                 ZDOT =        2011.605124
 
              TDR Cartesian                         TDR Cartesian  
    -----------------------------------       --------------------------------
     X    =       -4634256.35                 X    =        -1412521.34
     Y    =       14243719.37  feet           Y    =         4341485.66  meter
     Z    =       16422934.97                 Z    =         5005710.58
     XDOT =     -18773.244693                 XDOT =       -5722.084982
     YDOT =     -13719.064267  feet/sec       YDOT =       -4181.570789  meter/sec
     ZDOT =       6592.513767                 ZDOT =        2009.398196
  
  
    The mean element set is posted at the UTC for which position is
    just north of the next ascending node relative to the above
    vector time
 
 
    TWO LINE MEAN ELEMENT SET
  
    ISS
    1 25544U 98067A   16090.64582433  .00016717  00000-0  10270-3 0  9064
    2 25544  51.6400  89.7664 0002428   5.5181 354.5998 15.54323075 32760
  
  
    Satellite: ISS
    Catalog Number: 25544
    Epoch time:      16090.64582433   =   yrday.fracday
    Element set:     906
    Inclination:       51.6400  deg
    RA of node:        89.7664  deg
    Eccentricity:     .0002428     
    Arg of perigee:     5.5181  deg
    Mean anomaly:     354.5998  deg
    Mean motion:   15.54323075  rev/day
    Decay rate:    1.67170E-04  rev/day^2
    Epoch rev:            3276
    Checksum:              318
 
 
    Coasting Arc #8 (Orbit 3290)
    ---------------------------------------
 
    Vector Time (GMT): 2016/091/14:15:30.000
    Vector Time (MET): N/A
    Weight (LBS)     : 901911.1
 
              M50 Cartesian                         M50 Keplerian  
    -----------------------------------       --------------------------------
     X    =        4154099.20                 A    =         6776858.48  meter
     Y    =        -465084.66  meter          E    =           .0015566
     Z    =       -5347363.92                 I    =           51.98668
     XDOT =        801.114879                 Wp   =           80.66324
     YDOT =       7615.386704  meter/sec      RA   =           84.21488  deg
     ZDOT =        -37.637559                 TA   =          188.96540
                                              MA   =          188.99323
                                              Ha   =            221.099  n.mi
                                              Hp   =            214.310
 
              M50 Cartesian                         J2K Cartesian  
    -----------------------------------       --------------------------------
     X    =       13628934.40                 X    =         4184966.39
     Y    =       -1525868.32  feet           Y    =         -418458.63  meter
     Z    =      -17543844.87                 Z    =        -5327109.30
     XDOT =       2628.329656                 XDOT =         716.081017
     YDOT =      24984.864515  feet/sec       YDOT =        7623.869848  meter/sec
     ZDOT =       -123.482806                 ZDOT =         -33.953118
 
